KUIPER-00075            
1 64822U 25151G   26198.32923479  .00023360  00000+0  48742-3 0  9992
2 64822  51.8657 308.9581 0003927  18.3591 341.7540 15.45425530 56423
KUIPER-00076            
1 64823U 25151H   26198.08780345  .00001545  00000+0  23159-3 0  9995
2 64823  51.9017  80.8986 0000860 107.8673 252.2383 14.79938041 54575
KUIPER-00077            
1 64824U 25151J   26198.08241432  .00001616  00000+0  24096-3 0  9995
2 64824  51.9021  85.9406 0000778 106.0497 254.0551 14.79938388 54501
KUIPER-00078            
1 64825U 25151K   26198.11887156  .00001707  00000+0  25284-3 0  9990
2 64825  51.9012  83.2578 0000761 102.7737 257.3311 14.79936810 54547
KUIPER-00079            
1 64826U 25151L   26198.07971202 -.00000134  00000+0  11395-4 0  9995
2 64826  51.9001  88.3908 0000924  96.8097 263.2970 14.79927439 55660
KUIPER-00080            
1 64827U 25151M   26198.11354807  .00001663  00000+0  24728-3 0  9997
2 64827  51.9005  88.2531 0000610 103.4353 256.6677 14.79899433 54478
KUIPER-00082            
1 64828U 25151N   26197.95813738  .00001518  00000+0  22805-3 0  9995
2 64828  51.9021  76.4923 0000819 109.1633 250.9418 14.79939812 54629
KUIPER-00083            
1 64829U 25151P   26198.08510646  .00001711  00000+0  25342-3 0  9997
2 64829  51.9015  83.4142 0000787 107.1617 252.9431 14.79938547 55721
KUIPER-00084            
1 64830U 25151Q   26198.14181083 -.00002171  00000+0 -25590-3 0  9993
2 64830  51.9020  93.1488 0000865 102.9119 257.1940 14.79923537 54406
KUIPER-00085            
1 64831U 25151R   26198.05943969  .00001649  00000+0  24524-3 0  9996
2 64831  51.9039  76.0919 0000784 107.2812 252.8236 14.79937903 54631
KUIPER-00086            
1 64832U 25151S   26197.98112539  .00000043  00000+0  34693-4 0  9995
2 64832  51.9021  86.3839 0000761 113.9550 246.1493 14.79931110 54484
KUIPER-00087            
1 64833U 25151T   26198.06752742 -.00000246  00000+0 -32418-5 0  9993
2 64833  51.9011  68.4639 0000951 107.2039 252.9028 14.79927641 54733
KUIPER-00089            
1 64834U 25151U   26198.06212610  .00001605  00000+0  23949-3 0  9994
2 64834  51.9016  73.5094 0000712 107.3046 252.7994 14.79939711 54679
KUIPER-00090            
1 64835U 25151V   26197.93516199  .00000118  00000+0  44550-4 0  9999
2 64835  51.8991  66.5768 0000802 111.4599 248.6449 14.79932504 54751
KUIPER-00091            
1 64836U 25151W   26198.06482307  .00001480  00000+0  22305-3 0  9994
2 64836  51.9016  71.0154 0000866 113.4650 246.6403 14.79939996 54706
KUIPER-00092            
1 64837U 25151X   26197.85414674  .00000284  00000+0  66210-4 0  9998
2 64837  51.9022  79.4388 0000802 108.2301 251.8749 14.79929333 55784
KUIPER-00093            
1 64838U 25151Y   26198.12156996  .00001671  00000+0  24817-3 0  9997
2 64838  51.9012  80.7290 0000814 105.6774 254.4278 14.79933310 54571
KUIPER-00094            
1 64839U 25151Z   26198.23773599  .00001529  00000+0  22957-3 0  9999
2 64839  51.9054  35.3072 0001037 110.4805 249.6269 14.79924661 55227
KUIPER-00081            
1 65132U 25171A   26197.63643732  .00000354  00000+0  75495-4 0  9997
2 65132  51.9013 297.8728 0000468  76.6070 283.4944 14.79931920 52135
KUIPER-00088            
1 65133U 25171B   26197.68509424  .00000315  00000+0  70284-4 0  9990
2 65133  51.9006 315.1590 0000499 104.9704 255.1313 14.79931165 51891
KUIPER-00095            
1 65134U 25171C   26197.70666555  .00000286  00000+0  66461-4 0  9992
2 65134  51.8990 295.1111 0000361  92.8760 267.2244 14.79932779 52175
KUIPER-00096            
1 65135U 25171D   26198.33471326  .00000204  00000+0  55750-4 0  9992
2 65135  51.9004 304.7827 0000360 114.1070 245.9930 14.79928258 52098
KUIPER-00097            
1 65136U 25171E   26198.33203582  .00000299  00000+0  68171-4 0  9995
2 65136  51.9022 307.4511 0000575 111.7943 248.3081 14.79931210 52040
KUIPER-00098            
1 65137U 25171F   26198.32932221  .00001550  00000+0  23224-3 0  9994
2 65137  51.9019 309.8280 0000490 108.6872 251.4144 14.79930632 51364
KUIPER-00099            
1 65138U 25171G   26198.30630183  .00001125  00000+0  17660-3 0  9990
2 65138  51.8978 299.9282 0002096 124.0252 236.0910 14.79949930 52156
KUIPER-00100            
1 65139U 25171H   26198.27527137  .00001390  00000+0  21132-3 0  9994
2 65139  51.9027 297.5424 0000421 101.8685 258.2325 14.79929057 52185
KUIPER-00102            
1 65140U 25171J   26198.27257028  .00001365  00000+0  20804-3 0  9992
2 65140  51.8997 300.0409 0000376  71.2335 288.8668 14.79924654 52149
KUIPER-00103            
1 65141U 25171K   26198.28746278  .00001599  00000+0  23869-3 0  9997
2 65141  51.8998 317.4736 0000333  96.7041 263.3959 14.79930159 51906
KUIPER-00104            
1 65142U 25171L   26198.30094651  .00000406  00000+0  82252-4 0  9990
2 65142  51.9032 304.9147 0000357 102.4310 257.6693 14.79931606 52083
KUIPER-00105            
1 65143U 25171M   26198.32662922  .00001543  00000+0  23127-3 0  9993
2 65143  51.9017 312.4019 0000482 120.1138 239.9872 14.79938512 51986
KUIPER-00106            
1 65144U 25171N   26197.49699081  .00001450  00000+0  21911-3 0  9993
2 65144  51.9024 294.8334 0000333 103.6845 256.4154 14.79935880 52167
KUIPER-00107            
1 65145U 25171P   26198.27797205  .00000352  00000+0  75153-4 0  9996
2 65145  51.9011 295.0581 0000363 108.8479 251.2523 14.79933142 52223
KUIPER-00108            
1 65146U 25171Q   26197.69048394  .00001540  00000+0  23090-3 0  9992
2 65146  51.9032 310.1933 0000407 113.6926 246.4079 14.79939327 51960
KUIPER-00109            
1 65147U 25171R   26197.66211026  .00001548  00000+0  23196-3 0  9999
2 65147  51.9026 305.2613 0000355 104.9183 255.1819 14.79933176 52027
KUIPER-00110            
1 65148U 25171S   26197.68240209 -.00000603  00000+0 -50176-4 0  9999
2 65148  51.9009 317.7297 0000379 120.2221 239.8780 14.79929755 51848
KUIPER-00111            
1 65149U 25171T   26197.57569618  .00001605  00000+0  23946-3 0  9991
2 65149  51.8993 323.0791 0000328  91.7428 268.3572 14.79934859 51762
KUIPER-00112            
1 65150U 25171U   26198.30365220  .00000400  00000+0  81423-4 0  9995
2 65150  51.9010 302.4726 0000374 101.5201 258.5804 14.79932356 52113
KUIPER-00114            
1 65151U 25171V   26198.31584018  .00001563  00000+0  23396-3 0  9990
2 65151  51.9011 322.3889 0000501 112.4915 247.6100 14.79930874 51830
KUIPER-00115            
1 65152U 25171W   26197.85122021  .00000067  00000+0  37813-4 0  9999
2 65152  51.9028 316.9445 0000453 133.0578 227.0422 14.79932957 51873
KUIPER-00116            
1 65153U 25171X   26197.67698190  .00001276  00000+0  19629-3 0  9992
2 65153  51.9011 322.7492 0000401   0.1333 359.9630 14.79948726 51775
KUIPER-00118            
1 65154U 25171Y   26197.67429139  .00001669  00000+0  24787-3 0  9995
2 65154  51.9011 325.2124 0000533 120.9672 239.1343 14.79927167 51742
KUIPER-00119            
1 65155U 25171Z   26198.29557109  .00000229  00000+0  58973-4 0  9990
2 65155  51.9016 310.0609 0000111  29.5416 330.5553 14.79930424 52009
KUIPER-00120            
1 65762U 25217A   26197.45191693  .00000974  00000+0  15676-3 0  9993
2 65762  51.8982 203.6692 0000436  74.5074 285.5937 14.79934195 43805
KUIPER-00132            
1 65763U 25217B   26197.93847692  .00014126  00000+0  31997-3 0  9992
2 65763  51.8552  94.1861 0007193  73.0474 287.1303 15.43356574 45364
KUIPER-00133            
1 65764U 25217C   26198.29605061  .00000991  00000+0  15899-3 0  9993
2 65764  51.9022 200.0466 0000491  63.1080 296.9933 14.79935870 43932
KUIPER-00139            
1 65765U 25217D   26197.31813001  .00001112  00000+0  17478-3 0  9992
2 65765  51.8977 171.8276 0000690  71.6252 288.4785 14.79938638 44242
KUIPER-00142            
1 65766U 25217E   26197.26816047  .00001207  00000+0  18732-3 0  9999
2 65766  51.8986 187.0092 0000542  64.8024 295.2995 14.79941149 44021
KUIPER-00145            
1 65767U 25217F   26197.26556259  .00000999  00000+0  16007-3 0  9996
2 65767  51.8996 189.5437 0000611  63.7803 296.3222 14.79920022 43989
KUIPER-00147            
1 65768U 25217G   26197.49912987  .00000816  00000+0  13599-3 0  9997
2 65768  51.8972 190.9883 0000387  83.1664 276.9343 14.79941449 43980
KUIPER-00148            
1 65769U 25217H   26198.25002315  .00004318  00000+0  59493-3 0  9992
2 65769  51.9034 170.1841 0000658  48.5683 254.0703 14.79941926  5167
KUIPER-00150            
1 65770U 25217J   26198.29871018  .00000936  00000+0  15179-3 0  9997
2 65770  51.9006 197.4894 0000608  66.9102 293.1925 14.79943133 43965
KUIPER-00151            
1 65771U 25217K   26197.29383696  .00001034  00000+0  16457-3 0  9997
2 65771  51.9005 194.4300 0000504  60.9514 299.1499 14.79941614 43920
KUIPER-00152            
1 65772U 25217L   26197.34114840  .00001049  00000+0  16662-3 0  9991
2 65772  51.8997 181.7054 0000525  67.9632 292.1386 14.79931576 44101
KUIPER-00153            
1 65773U 25217M   26198.29192307  .00001153  00000+0  18022-3 0  9999
2 65773  51.9019 172.5760 0000603  75.3544 284.7486 14.79928352 44311
KUIPER-00155            
1 65774U 25217N   26198.25405373  .00001604  00000+0  23934-3 0  9995
2 65774  51.9026 145.2070 0000817  74.1705 285.9347 14.79941097 44695
KUIPER-00156            
1 65775U 25217P   26197.98807647  .00001282  00000+0  19712-3 0  9996
2 65775  51.9021 173.9023 0000713  57.6963 302.4068 14.79932973 44265
KUIPER-00163            
1 65777U 25217R   26198.23523523  .00541301  15606-3  64706-3 0  9991
2 65777  51.8721 106.8805 0001544 166.8411 193.2646 16.07784121 45206
KUIPER-00165            
1 65778U 25217S   26197.97723671  .00000072  00000+0  38460-4 0  9990
2 65778  51.8992 183.8954 0000642  79.6229 280.4806 14.79926273 44123
KUIPER-00166            
1 65779U 25217T   26197.95694221  .00006757  00000+0  91341-3 0  9999
2 65779  51.9037 171.5342 0000625 303.7735  56.3167 14.79979610 44295
